[{"OBJECT_NAME":"STARLINK-30934","OBJECT_ID":"2023-178X","EPOCH":"2026-03-09T03:12:45.205056","MEAN_MOTION":15.30187998,"ECCENTRICITY":0.00010009,"INCLINATION":53.1615,"RA_OF_ASC_NODE":3.9148,"ARG_OF_PERICENTER":102.8812,"MEAN_ANOMALY":257.23,"EPHEMERIS_TYPE":0,"CLASSIFICATION_TYPE":"U","NORAD_CAT_ID":58395,"ELEMENT_SET_NO":999,"REV_AT_EPOCH":12973,"BSTAR":-2.7036206e-5,"MEAN_MOTION_DOT":-1.159e-5,"MEAN_MOTION_DDOT":0},{"OBJECT_NAME":"GLOBAL-34","OBJECT_ID":"2026-043A","EPOCH":"2026-03-09T11:23:30.999840","MEAN_MOTION":15.31488019,"ECCENTRICITY":0.00068849,"INCLINATION":42.0215,"RA_OF_ASC_NODE":76.7399,"ARG_OF_PERICENTER":289.2632,"MEAN_ANOMALY":70.746,"EPHEMERIS_TYPE":0,"CLASSIFICATION_TYPE":"U","NORAD_CAT_ID":68098,"ELEMENT_SET_NO":999,"REV_AT_EPOCH":53,"BSTAR":0.00045822046,"MEAN_MOTION_DOT":0.00014018,"MEAN_MOTION_DDOT":0}]
